STARLINK-5290           
1 54157U 22141A   26068.26345695  .00001597  00000+0  11846-3 0  9998
2 54157  53.2180  15.9856 0001363  99.2580 260.8566 15.08831092185658
LEMUR-2-SIERRINI        
1 60579U 24149DR  26068.80891719  .00014386  00000+0  92040-3 0  9991
2 60579  97.6873 151.1225 0006580 147.8458 212.3173 15.08682764 85461
